[{"OBJECT_NAME":"STARLINK-4145","OBJECT_ID":"2022-083F","EPOCH":"2025-08-14T11:19:44.712192","MEAN_MOTION":15.0883506,"ECCENTRICITY":0.0001329,"INCLINATION":53.2192,"RA_OF_ASC_NODE":24.3608,"ARG_OF_PERICENTER":90.8468,"MEAN_ANOMALY":269.2676,"EPHEMERIS_TYPE":0,"CLASSIFICATION_TYPE":"U","NORAD_CAT_ID":53137,"ELEMENT_SET_NO":999,"REV_AT_EPOCH":16993,"BSTAR":3.2618e-6,"MEAN_MOTION_DOT":-2.36e-6,"MEAN_MOTION_DDOT":0},{"OBJECT_NAME":"STARLINK-4141","OBJECT_ID":"2022-083G","EPOCH":"2025-08-15T09:33:11.595168","MEAN_MOTION":15.08834987,"ECCENTRICITY":0.0001238,"INCLINATION":53.219,"RA_OF_ASC_NODE":15.383,"ARG_OF_PERICENTER":85.4396,"MEAN_ANOMALY":274.6738,"EPHEMERIS_TYPE":0,"CLASSIFICATION_TYPE":"U","NORAD_CAT_ID":53138,"ELEMENT_SET_NO":999,"REV_AT_EPOCH":17091,"BSTAR":2.48e-5,"MEAN_MOTION_DOT":1.07e-6,"MEAN_MOTION_DDOT":0},{"OBJECT_NAME":"STARLINK-4185","OBJECT_ID":"2022-083H","EPOCH":"2025-08-15T10:54:37.931616","MEAN_MOTION":15.08836906,"ECCENTRICITY":0.000113,"INCLINATION":53.2191,"RA_OF_ASC_NODE":19.9471,"ARG_OF_PERICENTER":87.8627,"MEAN_ANOMALY":272.2495,"EPHEMERIS_TYPE":0,"CLASSIFICATION_TYPE":"U","NORAD_CAT_ID":53139,"ELEMENT_SET_NO":999,"REV_AT_EPOCH":17008,"BSTAR":3.5348e-6,"MEAN_MOTION_DOT":-2.32e-6,"MEAN_MOTION_DDOT":0},{"OBJECT_NAME":"STARLINK-4170","OBJECT_ID":"2022-083J","EPOCH":"2025-08-15T10:59:56.037408","MEAN_MOTION":15.08838416,"ECCENTRICITY":0.0001283,"INCLINATION":53.2201,"RA_OF_ASC_NODE":19.9297,"ARG_OF_PERICENTER":93.348,"MEAN_ANOMALY":266.7659,"EPHEMERIS_TYPE":0,"CLASSIFICATION_TYPE":"U","NORAD_CAT_ID":53140,"ELEMENT_SET_NO":999,"REV_AT_EPOCH":17008,"BSTAR":7.124e-5,"MEAN_MOTION_DOT":8.46e-6,"MEAN_MOTION_DDOT":0},{"OBJECT_NAME":"STARLINK-4103","OBJECT_ID":"2022-083K","EPOCH":"2025-08-14T20:14:57.193728","MEAN_MOTION":15.08842299,"ECCENTRICITY":0.0001233,"INCLINATION":53.2183,"RA_OF_ASC_NODE":22.6877,"ARG_OF_PERICENTER":80.2787,"MEAN_ANOMALY":279.8345,"EPHEMERIS_TYPE":0,"CLASSIFICATION_TYPE":"U","NORAD_CAT_ID":53141,"ELEMENT_SET_NO":999,"REV_AT_EPOCH":16999,"BSTAR":-0.00014205,"MEAN_MOTION_DOT":-2.548e-5,"MEAN_MOTION_DDOT":0},{"OBJECT_NAME":"STARLINK-4101","OBJECT_ID":"2022-083L","EPOCH":"2025-08-15T10:45:24.470496","MEAN_MOTION":15.08836029,"ECCENTRICITY":0.0001245,"INCLINATION":53.2181,"RA_OF_ASC_NODE":19.947,"ARG_OF_PERICENTER":89.279,"MEAN_ANOMALY":270.8345,"EPHEMERIS_TYPE":0,"CLASSIFICATION_TYPE":"U","NORAD_CAT_ID":53142,"ELEMENT_SET_NO":999,"REV_AT_EPOCH":17009,"BSTAR":-4.2372e-5,"MEAN_MOTION_DOT":-9.62e-6,"MEAN_MOTION_DDOT":0},{"OBJECT_NAME":"STARLINK-4102","OBJECT_ID":"2022-083M","EPOCH":"2025-08-14T10:37:20.950176","MEAN_MOTION":15.08837944,"ECCENTRICITY":0.0001353,"INCLINATION":53.2183,"RA_OF_ASC_NODE":24.4897,"ARG_OF_PERICENTER":86.8606,"MEAN_ANOMALY":273.2541,"EPHEMERIS_TYPE":0,"CLASSIFICATION_TYPE":"U","NORAD_CAT_ID":53143,"ELEMENT_SET_NO":999,"REV_AT_EPOCH":16993,"BSTAR":1.1209e-5,"MEAN_MOTION_DOT":-1.1e-6,"MEAN_MOTION_DDOT":0},{"OBJECT_NAME":"STARLINK-4100","OBJECT_ID":"2022-083N","EPOCH":"2025-08-15T10:44:02.192640","MEAN_MOTION":15.08836024,"ECCENTRICITY":0.0001375,"INCLINATION":53.2181,"RA_OF_ASC_NODE":19.984,"ARG_OF_PERICENTER":90.4516,"MEAN_ANOMALY":269.6634,"EPHEMERIS_TYPE":0,"CLASSIFICATION_TYPE":"U","NORAD_CAT_ID":53144,"ELEMENT_SET_NO":999,"REV_AT_EPOCH":17008,"BSTAR":-5.3468e-5,"MEAN_MOTION_DOT":-1.139e-5,"MEAN_MOTION_DDOT":0},{"OBJECT_NAME":"STARLINK-4106","OBJECT_ID":"2022-083P","EPOCH":"2025-08-14T16:48:17.746560","MEAN_MOTION":15.08842138,"ECCENTRICITY":0.0001247,"INCLINATION":53.2189,"RA_OF_ASC_NODE":23.3319,"ARG_OF_PERICENTER":96.0812,"MEAN_ANOMALY":264.0322,"EPHEMERIS_TYPE":0,"CLASSIFICATION_TYPE":"U","NORAD_CAT_ID":53145,"ELEMENT_SET_NO":999,"REV_AT_EPOCH":16997,"BSTAR":-4.1264e-6,"MEAN_MOTION_DOT":-3.54e-6,"MEAN_MOTION_DDOT":0},{"OBJECT_NAME":"STARLINK-4094","OBJECT_ID":"2022-083R","EPOCH":"2025-08-14T16:42:59.925024","MEAN_MOTION":15.08837274,"ECCENTRICITY":0.0001288,"INCLINATION":53.218,"RA_OF_ASC_NODE":23.3514,"ARG_OF_PERICENTER":88.9933,"MEAN_ANOMALY":271.1207,"EPHEMERIS_TYPE":0,"CLASSIFICATION_TYPE":"U","NORAD_CAT_ID":53147,"ELEMENT_SET_NO":999,"REV_AT_EPOCH":17062,"BSTAR":2.7496e-5,"MEAN_MOTION_DOT":1.5e-6,"MEAN_MOTION_DDOT":0},{"OBJECT_NAME":"STARLINK-4021","OBJECT_ID":"2022-083T","EPOCH":"2025-08-14T18:58:12.852192","MEAN_MOTION":15.08838375,"ECCENTRICITY":0.0001175,"INCLINATION":53.2193,"RA_OF_ASC_NODE":13.135,"ARG_OF_PERICENTER":90.1981,"MEAN_ANOMALY":269.9146,"EPHEMERIS_TYPE":0,"CLASSIFICATION_TYPE":"U","NORAD_CAT_ID":53149,"ELEMENT_SET_NO":999,"REV_AT_EPOCH":17012,"BSTAR":4.7636e-5,"MEAN_MOTION_DOT":4.7e-6,"MEAN_MOTION_DDOT":0},{"OBJECT_NAME":"STARLINK-4038","OBJECT_ID":"2022-083U","EPOCH":"2025-08-14T19:28:35.038560","MEAN_MOTION":15.08847032,"ECCENTRICITY":0.0001258,"INCLINATION":53.2185,"RA_OF_ASC_NODE":12.8349,"ARG_OF_PERICENTER":83.6405,"MEAN_ANOMALY":276.473,"EPHEMERIS_TYPE":0,"CLASSIFICATION_TYPE":"U","NORAD_CAT_ID":53150,"ELEMENT_SET_NO":999,"REV_AT_EPOCH":17012,"BSTAR":8.8067e-5,"MEAN_MOTION_DOT":1.114e-5,"MEAN_MOTION_DDOT":0},{"OBJECT_NAME":"STARLINK-4040","OBJECT_ID":"2022-083V","EPOCH":"2025-08-15T09:31:09.594912","MEAN_MOTION":15.08836972,"ECCENTRICITY":0.0001237,"INCLINATION":53.2214,"RA_OF_ASC_NODE":10.2074,"ARG_OF_PERICENTER":73.9316,"MEAN_ANOMALY":286.1813,"EPHEMERIS_TYPE":0,"CLASSIFICATION_TYPE":"U","NORAD_CAT_ID":53151,"ELEMENT_SET_NO":999,"REV_AT_EPOCH":17021,"BSTAR":0.00021674,"MEAN_MOTION_DOT":3.163e-5,"MEAN_MOTION_DDOT":0},{"OBJECT_NAME":"STARLINK-4045","OBJECT_ID":"2022-083W","EPOCH":"2025-08-15T09:41:45.949056","MEAN_MOTION":15.08837192,"ECCENTRICITY":0.0001199,"INCLINATION":53.2186,"RA_OF_ASC_NODE":10.1759,"ARG_OF_PERICENTER":85.0128,"MEAN_ANOMALY":275.1001,"EPHEMERIS_TYPE":0,"CLASSIFICATION_TYPE":"U","NORAD_CAT_ID":53152,"ELEMENT_SET_NO":999,"REV_AT_EPOCH":17021,"BSTAR":1.4751e-5,"MEAN_MOTION_DOT":-5.3e-7,"MEAN_MOTION_DDOT":0},{"OBJECT_NAME":"STARLINK-4098","OBJECT_ID":"2022-083X","EPOCH":"2025-08-15T09:25:52.114656","MEAN_MOTION":15.08841113,"ECCENTRICITY":0.0001307,"INCLINATION":53.2193,"RA_OF_ASC_NODE":10.2266,"ARG_OF_PERICENTER":89.1817,"MEAN_ANOMALY":270.9325,"EPHEMERIS_TYPE":0,"CLASSIFICATION_TYPE":"U","NORAD_CAT_ID":53153,"ELEMENT_SET_NO":999,"REV_AT_EPOCH":17021,"BSTAR":-9.3983e-6,"MEAN_MOTION_DOT":-4.37e-6,"MEAN_MOTION_DDOT":0},{"OBJECT_NAME":"STARLINK-4077","OBJECT_ID":"2022-083Y","EPOCH":"2025-08-15T09:36:28.035072","MEAN_MOTION":15.08835348,"ECCENTRICITY":0.0001205,"INCLINATION":53.2191,"RA_OF_ASC_NODE":10.1939,"ARG_OF_PERICENTER":80.8517,"MEAN_ANOMALY":279.2612,"EPHEMERIS_TYPE":0,"CLASSIFICATION_TYPE":"U","NORAD_CAT_ID":53154,"ELEMENT_SET_NO":999,"REV_AT_EPOCH":17021,"BSTAR":3.6416e-5,"MEAN_MOTION_DOT":2.92e-6,"MEAN_MOTION_DDOT":0},{"OBJECT_NAME":"STARLINK-4088","OBJECT_ID":"2022-083Z","EPOCH":"2025-08-14T09:24:29.389248","MEAN_MOTION":15.08834138,"ECCENTRICITY":0.0001347,"INCLINATION":53.2194,"RA_OF_ASC_NODE":14.7175,"ARG_OF_PERICENTER":90.8683,"MEAN_ANOMALY":269.2464,"EPHEMERIS_TYPE":0,"CLASSIFICATION_TYPE":"U","NORAD_CAT_ID":53155,"ELEMENT_SET_NO":999,"REV_AT_EPOCH":17070,"BSTAR":5.5748e-5,"MEAN_MOTION_DOT":5.99e-6,"MEAN_MOTION_DDOT":0}]
