STARLINK-4145           
1 53137U 22083F   25226.47204528 -.00000236  00000+0  32618-5 0  9999
2 53137  53.2192  24.3608 0001329  90.8468 269.2676 15.08835060169938
STARLINK-4141           
1 53138U 22083G   25227.39805087  .00000107  00000+0  24800-4 0  9998
2 53138  53.2190  15.3830 0001238  85.4396 274.6738 15.08834987170919
STARLINK-4185           
1 53139U 22083H   25227.45460569 -.00000232  00000+0  35348-5 0  9998
2 53139  53.2191  19.9471 0001130  87.8627 272.2495 15.08836906170081
STARLINK-4170           
1 53140U 22083J   25227.45828747  .00000846  00000+0  71240-4 0  9996
2 53140  53.2201  19.9297 0001283  93.3480 266.7659 15.08838416170087
STARLINK-4103           
1 53141U 22083K   25226.84371752 -.00002548  00000+0 -14205-3 0  9998
2 53141  53.2183  22.6877 0001233  80.2787 279.8345 15.08842299169991
STARLINK-4101           
1 53142U 22083L   25227.44819989 -.00000962  00000+0 -42372-4 0  9990
2 53142  53.2181  19.9470 0001245  89.2790 270.8345 15.08836029170092
STARLINK-4102           
1 53143U 22083M   25226.44260359 -.00000110  00000+0  11209-4 0  9990
2 53143  53.2183  24.4897 0001353  86.8606 273.2541 15.08837944169931
STARLINK-4100           
1 53144U 22083N   25227.44724760 -.00001139  00000+0 -53468-4 0  9999
2 53144  53.2181  19.9840 0001375  90.4516 269.6634 15.08836024170080
STARLINK-4106           
1 53145U 22083P   25226.70020540 -.00000354  00000+0 -41264-5 0  9993
2 53145  53.2189  23.3319 0001247  96.0812 264.0322 15.08842138169970
STARLINK-4094           
1 53147U 22083R   25226.69652691  .00000150  00000+0  27496-4 0  9993
2 53147  53.2180  23.3514 0001288  88.9933 271.1207 15.08837274170629
STARLINK-4021           
1 53149U 22083T   25226.79042653  .00000470  00000+0  47636-4 0  9990
2 53149  53.2193  13.1350 0001175  90.1981 269.9146 15.08838375170128
STARLINK-4038           
1 53150U 22083U   25226.81151665  .00001114  00000+0  88067-4 0  9998
2 53150  53.2185  12.8349 0001258  83.6405 276.4730 15.08847032170127
STARLINK-4040           
1 53151U 22083V   25227.39663883  .00003163  00000+0  21674-3 0  9999
2 53151  53.2214  10.2074 0001237  73.9316 286.1813 15.08836972170219
STARLINK-4045           
1 53152U 22083W   25227.40400404 -.00000053  00000+0  14751-4 0  9995
2 53152  53.2186  10.1759 0001199  85.0128 275.1001 15.08837192170211
STARLINK-4098           
1 53153U 22083X   25227.39296429 -.00000437  00000+0 -93983-5 0  9996
2 53153  53.2193  10.2266 0001307  89.1817 270.9325 15.08841113170215
STARLINK-4077           
1 53154U 22083Y   25227.40032448  .00000292  00000+0  36416-4 0  9992
2 53154  53.2191  10.1939 0001205  80.8517 279.2612 15.08835348170216
STARLINK-4088           
1 53155U 22083Z   25226.39200682  .00000599  00000+0  55748-4 0  9996
2 53155  53.2194  14.7175 0001347  90.8683 269.2464 15.08834138170708
